NOAA 15                 
1 25338U 98030A   24339.44605093  .00000474  00000+0  21333-3 0  9992
2 25338  98.5539   2.9211 0010216 181.0596 179.0564 14.26816007381714
NOAA 18                 
1 28654U 05018A   24339.46885028  .00000524  00000+0  30227-3 0  9998
2 28654  98.8618  54.9254 0013329 302.2193  57.7687 14.13442169  7310
NOAA 19                 
1 33591U 09005A   24339.44526998  .00000484  00000+0  28242-3 0  9999
2 33591  99.0257  36.8750 0014040 168.6502 191.4989 14.13219657815678
METOP-B                 
1 38771U 12049A   24339.44055488  .00000419  00000+0  21060-3 0  9996
2 38771  98.6060  32.6559 0000846  82.1282 277.9992 14.21602489633732
SARAL                   
1 39086U 13009A   24339.50893942  .00000416  00000+0  16919-3 0  9999
2 39086  98.5485 162.3181 0002669 123.4707 236.6733 14.32598952615466
METOP-C                 
1 43689U 18087A   24339.48203626  .00000414  00000+0  20934-3 0  9995
2 43689  98.7026  36.5777 0000912  16.5507 343.5700 14.21485895315317
ANGELS                  
1 44876U 19092D   24338.48997688  .00016539  00000+0  53604-3 0  9993
2 44876  97.4637 167.7955 0010264  80.1188 280.1212 15.32025242275237
OTB-3-GAZELLE           
1 54023U 22127A   24339.51293105  .00000514  00000+0  16854-3 0  9991
2 54023  98.3554 330.1811 0014466  78.4034 281.8779 14.42334391113678
EOS-6 (OCEANSAT-3)      
1 54361U 22158A   24339.46986439  .00001182  00000+0  33673-3 0  9993
2 54361  98.3548  74.2211 0001053  88.2022 271.9292 14.47040488106892
